start=new Date('2021-11-15T00:00:00.000Z').valueOf();
sats=[{"SEMIMAJOR_AXIS":"6925.365","CENTER_NAME":"EARTH","RA_OF_ASC_NODE":"140.9258","MEAN_MOTION_DOT":"0.00002076","GP_ID":"189772463","RCS_SIZE":"LARGE","OBJECT_ID":"2020-006AH","MEAN_MOTION":"15.06394697","EPHEMERIS_TYPE":"0","REF_FRAME":"TEME","MEAN_MOTION_DDOT":"0.0000000000000","SITE":"AFETR","TLE_LINE2":"2 45075  53.0538 140.9258 0001576  70.3500 289.7659 15.06394697 99228","APOAPSIS":"548.321","ARG_OF_PERICENTER":"70.3500","REV_AT_EPOCH":"9922","PERIOD":"95.592","LAUNCH_DATE":"2020-01-29","PERIAPSIS":"546.138","EPOCH":"2021-11-14T19:59:50.104320","FILE":"3215179","DECAY_DATE":null,"MEAN_ELEMENT_THEORY":"SGP4","COUNTRY_CODE":"US","ELEMENT_SET_NO":"999","MEAN_ANOMALY":"289.7659","INCLINATION":"53.0538","OBJECT_NAME":"STARLINK-1174","TLE_LINE1":"1 45075U 20006AH  21318.83321880  .00002076  00000-0  15825-3 0  9996","TIME_SYSTEM":"UTC","OBJECT_TYPE":"PAYLOAD","ECCENTRICITY":"0.00015760","NORAD_CAT_ID":"45075","BSTAR":"0.00015825000000","CLASSIFICATION_TYPE":"U"},{"TLE_LINE2":"2 45076  53.0536 140.8809 0001534  79.7057 280.4105 15.06404154 99226","APOAPSIS":"548.263","SITE":"AFETR","PERIOD":"95.592","LAUNCH_DATE":"2020-01-29","ARG_OF_PERICENTER":"79.7057","REV_AT_EPOCH":"9922","CENTER_NAME":"EARTH","GP_ID":"189771211","RA_OF_ASC_NODE":"140.8809","MEAN_MOTION_DOT":"0.00001055","SEMIMAJOR_AXIS":"6925.336","MEAN_MOTION_DDOT":"0.0000000000000","REF_FRAME":"TEME","OBJECT_ID":"2020-006AJ","MEAN_MOTION":"15.06404154","RCS_SIZE":"LARGE","EPHEMERIS_TYPE":"0","TLE_LINE1":"1 45076U 20006AJ  21318.84057337  .00001055  00000-0  89729-4 0  9992","MEAN_ANOMALY":"280.4105","INCLINATION":"53.0536","OBJECT_NAME":"STARLINK-1180","NORAD_CAT_ID":"45076","BSTAR":"0.00008972900000","CLASSIFICATION_TYPE":"U","TIME_SYSTEM":"UTC","OBJECT_TYPE":"PAYLOAD","ECCENTRICITY":"0.00015340","PERIAPSIS":"546.138","EPOCH":"2021-11-14T20:10:25.539168","ELEMENT_SET_NO":"999","DECAY_DATE":null,"FILE":"3215179","MEAN_ELEMENT_THEORY":"SGP4","COUNTRY_CODE":"US"},{"MEAN_MOTION":"15.39878313","OBJECT_ID":"2020-006AK","RCS_SIZE":"LARGE","EPHEMERIS_TYPE":"0","MEAN_MOTION_DDOT":"0.0000000000000","REF_FRAME":"TEME","SEMIMAJOR_AXIS":"6824.606","CENTER_NAME":"EARTH","GP_ID":"189771461","MEAN_MOTION_DOT":"-0.00000468","RA_OF_ASC_NODE":"116.0593","ARG_OF_PERICENTER":"60.6011","REV_AT_EPOCH":"9957","PERIOD":"93.514","LAUNCH_DATE":"2020-01-29","SITE":"AFETR","APOAPSIS":"447.641","TLE_LINE2":"2 45077  53.0544 116.0593 0001714  60.6011 299.5164 15.39878313 99572","DECAY_DATE":null,"FILE":"3215179","COUNTRY_CODE":"US","MEAN_ELEMENT_THEORY":"SGP4","ELEMENT_SET_NO":"999","PERIAPSIS":"445.301","EPOCH":"2021-11-14T20:22:06.140352","TIME_SYSTEM":"UTC","OBJECT_TYPE":"PAYLOAD","ECCENTRICITY":"0.00017140","NORAD_CAT_ID":"45077","BSTAR":"-0.00000166890000","CLASSIFICATION_TYPE":"U","MEAN_ANOMALY":"299.5164","INCLINATION":"53.0544","OBJECT_NAME":"STARLINK-1182","TLE_LINE1":"1 45077U 20006AK  21318.84868218 -.00000468  00000-0 -16689-5 0  9996"},{"SITE":"AFETR","APOAPSIS":"548.361","TLE_LINE2":"2 45078  53.0552 141.6900 0001625  82.2920 277.8253 15.06392683 99188","ARG_OF_PERICENTER":"82.2920","REV_AT_EPOCH":"9918","PERIOD":"95.593","LAUNCH_DATE":"2020-01-29","SEMIMAJOR_AXIS":"6925.371","CENTER_NAME":"EARTH","GP_ID":"189772213","RA_OF_ASC_NODE":"141.6900","MEAN_MOTION_DOT":"-0.00001103","MEAN_MOTION":"15.06392683","OBJECT_ID":"2020-006AL","RCS_SIZE":"LARGE","EPHEMERIS_TYPE":"0","MEAN_MOTION_DDOT":"0.0000000000000","REF_FRAME":"TEME","INCLINATION":"53.0552","MEAN_ANOMALY":"277.8253","OBJECT_NAME":"STARLINK-1177","TLE_LINE1":"1 45078U 20006AL  21318.65997043 -.00001103  00000-0 -55192-4 0  9993","TIME_SYSTEM":"UTC","ECCENTRICITY":"0.00016250","OBJECT_TYPE":"PAYLOAD","NORAD_CAT_ID":"45078","BSTAR":"-0.00005519200000","CLASSIFICATION_TYPE":"U","PERIAPSIS":"546.111","EPOCH":"2021-11-14T15:50:21.445152","DECAY_DATE":null,"FILE":"3215179","MEAN_ELEMENT_THEORY":"SGP4","COUNTRY_CODE":"US","ELEMENT_SET_NO":"999"},{"ELEMENT_SET_NO":"999","MEAN_ELEMENT_THEORY":"SGP4","COUNTRY_CODE":"US","DECAY_DATE":null,"FILE":"3215179","EPOCH":"2021-11-14T21:40:39.733824","PERIAPSIS":"546.134","BSTAR":"0.00005203000000","CLASSIFICATION_TYPE":"U","NORAD_CAT_ID":"45079","ECCENTRICITY":"0.00015580","OBJECT_TYPE":"PAYLOAD","TIME_SYSTEM":"UTC","TLE_LINE1":"1 45079U 20006AM  21318.90323766  .00000494  00000-0  52030-4 0  9995","OBJECT_NAME":"STARLINK-1149","MEAN_ANOMALY":"280.4014","INCLINATION":"53.0527","MEAN_MOTION_DDOT":"0.0000000000000","REF_FRAME":"TEME","EPHEMERIS_TYPE":"0","MEAN_MOTION":"15.06400196","OBJECT_ID":"2020-006AM","RCS_SIZE":"LARGE","GP_ID":"189772963","MEAN_MOTION_DOT":"0.00000494","RA_OF_ASC_NODE":"140.6055","CENTER_NAME":"EARTH","SEMIMAJOR_AXIS":"6925.348","LAUNCH_DATE":"2020-01-29","PERIOD":"95.592","REV_AT_EPOCH":"9922","ARG_OF_PERICENTER":"79.7150","APOAPSIS":"548.292","TLE_LINE2":"2 45079  53.0527 140.6055 0001558  79.7150 280.4014 15.06400196 99221","SITE":"AFETR"},{"TIME_SYSTEM":"UTC","ECCENTRICITY":"0.00016580","OBJECT_TYPE":"PAYLOAD","NORAD_CAT_ID":"45080","CLASSIFICATION_TYPE":"U","BSTAR":"0.00007901800000","MEAN_ANOMALY":"283.4670","INCLINATION":"53.0535","OBJECT_NAME":"STARLINK-1153","TLE_LINE1":"1 45080U 20006AN  21318.84427782  .00000895  00000-0  79018-4 0  9993","DECAY_DATE":null,"FILE":"3215179","COUNTRY_CODE":"US","MEAN_ELEMENT_THEORY":"SGP4","ELEMENT_SET_NO":"999","PERIAPSIS":"546.087","EPOCH":"2021-11-14T20:15:45.603648","ARG_OF_PERICENTER":"76.6504","REV_AT_EPOCH":"9922","PERIOD":"95.593","LAUNCH_DATE":"2020-01-29","SITE":"AFETR","APOAPSIS":"548.384","TLE_LINE2":"2 45080  53.0535 140.8646 0001658  76.6504 283.4670 15.06392895 99227","OBJECT_ID":"2020-006AN","MEAN_MOTION":"15.06392895","RCS_SIZE":"LARGE","EPHEMERIS_TYPE":"0","MEAN_MOTION_DDOT":"0.0000000000000","REF_FRAME":"TEME","SEMIMAJOR_AXIS":"6925.370","CENTER_NAME":"EARTH","GP_ID":"189771711","MEAN_MOTION_DOT":"0.00000895","RA_OF_ASC_NODE":"140.8646"},{"EPOCH":"2021-11-14T21:19:26.986656","PERIAPSIS":"545.996","ELEMENT_SET_NO":"999","MEAN_ELEMENT_THEORY":"SGP4","COUNTRY_CODE":"US","DECAY_DATE":null,"FILE":"3215179","TLE_LINE1":"1 45081U 20006AP  21318.88850679 -.00001265  00000-0 -66046-4 0  9994","OBJECT_NAME":"STARLINK-1151","INCLINATION":"53.0544","MEAN_ANOMALY":"284.3280","CLASSIFICATION_TYPE":"U","BSTAR":"-0.00006604600000","NORAD_CAT_ID":"45081","OBJECT_TYPE":"PAYLOAD","ECCENTRICITY":"0.00017740","TIME_SYSTEM":"UTC","GP_ID":"189771961","MEAN_MOTION_DOT":"-0.00001265","RA_OF_ASC_NODE":"140.6745","CENTER_NAME":"EARTH","SEMIMAJOR_AXIS":"6925.359","MEAN_MOTION_DDOT":"0.0000000000000","REF_FRAME":"TEME","EPHEMERIS_TYPE":"0","OBJECT_ID":"2020-006AP","MEAN_MOTION":"15.06396535","RCS_SIZE":"LARGE","APOAPSIS":"548.453","TLE_LINE2":"2 45081  53.0544 140.6745 0001774  75.7906 284.3280 15.06396535 99234","SITE":"AFETR","LAUNCH_DATE":"2020-01-29","PERIOD":"95.592","REV_AT_EPOCH":"9923","ARG_OF_PERICENTER":"75.7906"},{"RA_OF_ASC_NODE":"140.7164","MEAN_MOTION_DOT":"0.00001036","GP_ID":"189772713","CENTER_NAME":"EARTH","SEMIMAJOR_AXIS":"6925.363","REF_FRAME":"TEME","MEAN_MOTION_DDOT":"0.0000000000000","EPHEMERIS_TYPE":"0","RCS_SIZE":"LARGE","MEAN_MOTION":"15.06395222","OBJECT_ID":"2020-006AQ","TLE_LINE2":"2 45082  53.0522 140.7164 0001575  77.4895 282.6270 15.06395222 99223","APOAPSIS":"548.319","SITE":"AFETR","LAUNCH_DATE":"2020-01-29","PERIOD":"95.592","REV_AT_EPOCH":"9922","ARG_OF_PERICENTER":"77.4895","EPOCH":"2021-11-14T21:03:30.904992","PERIAPSIS":"546.137","ELEMENT_SET_NO":"999","COUNTRY_CODE":"US","MEAN_ELEMENT_THEORY":"SGP4","FILE":"3215179","DECAY_DATE":null,"TLE_LINE1":"1 45082U 20006AQ  21318.87744103  .00001036  00000-0  88446-4 0  9990","OBJECT_NAME":"STARLINK-1160","INCLINATION":"53.0522","MEAN_ANOMALY":"282.6270","BSTAR":"0.00008844600000","CLASSIFICATION_TYPE":"U","NORAD_CAT_ID":"45082","OBJECT_TYPE":"PAYLOAD","ECCENTRICITY":"0.00015750","TIME_SYSTEM":"UTC"},{"ELEMENT_SET_NO":"999","MEAN_ELEMENT_THEORY":"SGP4","COUNTRY_CODE":"US","FILE":"3215179","DECAY_DATE":null,"EPOCH":"2021-11-14T20:13:05.527776","PERIAPSIS":"545.944","BSTAR":"0.00010827000000","CLASSIFICATION_TYPE":"U","NORAD_CAT_ID":"45083","OBJECT_TYPE":"PAYLOAD","ECCENTRICITY":"0.00018180","TIME_SYSTEM":"UTC","TLE_LINE1":"1 45083U 20006AR  21318.84242509  .00001332  00000-0  10827-3 0  9997","OBJECT_NAME":"STARLINK-1190","MEAN_ANOMALY":"285.6975","INCLINATION":"53.0539","REF_FRAME":"TEME","MEAN_MOTION_DDOT":"0.0000000000000","EPHEMERIS_TYPE":"0","RCS_SIZE":"LARGE","OBJECT_ID":"2020-006AR","MEAN_MOTION":"15.06403477","MEAN_MOTION_DOT":"0.00001332","RA_OF_ASC_NODE":"160.8788","GP_ID":"189772464","CENTER_NAME":"EARTH","SEMIMAJOR_AXIS":"6925.338","LAUNCH_DATE":"2020-01-29","PERIOD":"95.592","REV_AT_EPOCH":"9894","ARG_OF_PERICENTER":"74.4214","TLE_LINE2":"2 45083  53.0539 160.8788 0001818  74.4214 285.6975 15.06403477 98944","APOAPSIS":"548.462","SITE":"AFETR"},{"LAUNCH_DATE":"2020-01-29","PERIOD":"95.592","REV_AT_EPOCH":"9946","ARG_OF_PERICENTER":"79.3333","APOAPSIS":"548.208","TLE_LINE2":"2 45084  53.0541 122.1460 0001469  79.3333 280.7821 15.06407432 99463","SITE":"AFETR","REF_FRAME":"TEME","MEAN_MOTION_DDOT":"0.0000000000000","EPHEMERIS_TYPE":"0","RCS_SIZE":"LARGE","OBJECT_ID":"2020-006AS","MEAN_MOTION":"15.06407432","MEAN_MOTION_DOT":"0.00001337","RA_OF_ASC_NODE":"122.1460","GP_ID":"189744928","CENTER_NAME":"EARTH","SEMIMAJOR_AXIS":"6925.326","CLASSIFICATION_TYPE":"U","BSTAR":"0.00010863000000","NORAD_CAT_ID":"45084","ECCENTRICITY":"0.00014690","OBJECT_TYPE":"PAYLOAD","TIME_SYSTEM":"UTC","TLE_LINE1":"1 45084U 20006AS  21318.55861170  .00001337  00000-0  10863-3 0  9992","OBJECT_NAME":"STARLINK-1173","MEAN_ANOMALY":"280.7821","INCLINATION":"53.0541","ELEMENT_SET_NO":"999","MEAN_ELEMENT_THEORY":"SGP4","COUNTRY_CODE":"US","FILE":"3214995","DECAY_DATE":null,"EPOCH":"2021-11-14T13:24:24.050880","PERIAPSIS":"546.173"}];
